HST                     
1 20580U 90037B   26068.15977042  .00009063  00000+0  30023-3 0  9999
2 20580  28.4717  43.6133 0001837 120.9992 239.0785 15.29473555773239
STARLINK-35561          
1 66105U 25236V   26068.49334352  .00027045  00000+0  92199-3 0  9991
2 66105  53.1590 104.8450 0001302  86.9151 273.1999 15.30198348 22850
